STARLINK-30352          
1 57736U 23131E   25293.19109180  .00001359  00000+0  11565-3 0  9996
2 57736  43.0035 214.8645 0001092 265.4889  94.5829 15.02540733118792
STARLINK-30344          
1 57737U 23131F   25293.21329770 -.00005658  00000+0 -40425-3 0  9994
2 57737  43.0035 215.0392 0001182 263.8723  96.1984 15.02520172118799
STARLINK-30351          
1 57738U 23131G   25293.16791565  .00000392  00000+0  44083-4 0  9997
2 57738  43.0030 215.5561 0001308 263.0465  97.0228 15.02532151118783
STARLINK-30242          
1 57739U 23131H   25293.11529709 -.00004877  00000+0 -34606-3 0  9995
2 57739  42.9999 190.2728 0000728 265.0484  95.0276 15.02555263119071
STARLINK-30331          
1 57740U 23131J   25293.03673648  .00000516  00000+0  28287-4 0  9993
2 57740  42.9979 173.7318 0001948 272.4920  87.5708 15.27590858119267
STARLINK-30364          
1 57741U 23131K   25293.15126049 -.00000292  00000+0 -65837-5 0  9991
2 57741  43.0017 215.4304 0001012 271.4570  88.6156 15.02535859118782
STARLINK-30308          
1 57742U 23131L   25293.09809931 -.00006823  00000+0 -49070-3 0  9998
2 57742  43.0080 215.8902 0002590 274.1337  85.9209 15.02516063118789
STARLINK-30361          
1 57743U 23131M   25293.14792540  .00000486  00000+0  51072-4 0  9995
2 57743  43.0022 215.4014 0001152 265.0943  94.9768 15.02537666118783
STARLINK-30363          
1 57744U 23131N   25293.10393735 -.00000178  00000+0  19300-5 0  9993
2 57744  43.0045 203.1559 0002622 249.1268 110.9293 15.02535412118928
STARLINK-30362          
1 57745U 23131P   25293.14459500  .00000397  00000+0  44451-4 0  9997
2 57745  43.0025 215.3766 0001245 267.9058  92.1642 15.02540405118788
STARLINK-30350          
1 57746U 23131Q   25292.84217525  .00000302  00000+0  37414-4 0  9990
2 57746  43.0012 217.3907 0001016 274.6609  85.4117 15.02536204118736
STARLINK-30307          
1 57747U 23131R   25293.14570015  .00001398  00000+0  11848-3 0  9999
2 57747  43.0014 215.3862 0001036 278.9934  81.0791 15.02547034118785
STARLINK-30356          
1 57748U 23131S   25293.13794100 -.00000208  00000+0 -32482-6 0  9993
2 57748  43.0041 215.3283 0001234 276.9078  83.1624 15.02552644118781
STARLINK-30366          
1 57749U 23131T   25293.18444615 -.00002614  00000+0 -17861-3 0  9996
2 57749  43.0050 214.8145 0001926 267.7145  92.3477 15.02518570118793
STARLINK-30357          
1 57750U 23131U   25293.12795168  .00000357  00000+0  41492-4 0  9992
2 57750  43.0006 215.2498 0000972 273.4362  86.6369 15.02534225118787
STARLINK-30370          
1 57751U 23131V   25293.10060138  .00002387  00000+0  19175-3 0  9990
2 57751  43.0026 203.1675 0001336 270.9991  89.0698 15.02533283118929
