[{"OBJECT_NAME":"STARLINK-30352","OBJECT_ID":"2023-131E","EPOCH":"2025-10-20T04:35:10.331520","MEAN_MOTION":15.02540733,"ECCENTRICITY":0.0001092,"INCLINATION":43.0035,"RA_OF_ASC_NODE":214.8645,"ARG_OF_PERICENTER":265.4889,"MEAN_ANOMALY":94.5829,"EPHEMERIS_TYPE":0,"CLASSIFICATION_TYPE":"U","NORAD_CAT_ID":57736,"ELEMENT_SET_NO":999,"REV_AT_EPOCH":11879,"BSTAR":0.00011565461,"MEAN_MOTION_DOT":1.359e-5,"MEAN_MOTION_DDOT":0},{"OBJECT_NAME":"STARLINK-30344","OBJECT_ID":"2023-131F","EPOCH":"2025-10-20T05:07:08.921280","MEAN_MOTION":15.02520172,"ECCENTRICITY":0.00011823,"INCLINATION":43.0035,"RA_OF_ASC_NODE":215.0392,"ARG_OF_PERICENTER":263.8723,"MEAN_ANOMALY":96.1984,"EPHEMERIS_TYPE":0,"CLASSIFICATION_TYPE":"U","NORAD_CAT_ID":57737,"ELEMENT_SET_NO":999,"REV_AT_EPOCH":11879,"BSTAR":-0.0004042533,"MEAN_MOTION_DOT":-5.658e-5,"MEAN_MOTION_DDOT":0},{"OBJECT_NAME":"STARLINK-30351","OBJECT_ID":"2023-131G","EPOCH":"2025-10-20T04:01:47.912160","MEAN_MOTION":15.02532151,"ECCENTRICITY":0.00013087,"INCLINATION":43.003,"RA_OF_ASC_NODE":215.5561,"ARG_OF_PERICENTER":263.0465,"MEAN_ANOMALY":97.0228,"EPHEMERIS_TYPE":0,"CLASSIFICATION_TYPE":"U","NORAD_CAT_ID":57738,"ELEMENT_SET_NO":999,"REV_AT_EPOCH":11878,"BSTAR":4.4082513e-5,"MEAN_MOTION_DOT":3.92e-6,"MEAN_MOTION_DDOT":0},{"OBJECT_NAME":"STARLINK-30242","OBJECT_ID":"2023-131H","EPOCH":"2025-10-20T02:46:01.668576","MEAN_MOTION":15.02555263,"ECCENTRICITY":7.282e-5,"INCLINATION":42.9999,"RA_OF_ASC_NODE":190.2728,"ARG_OF_PERICENTER":265.0484,"MEAN_ANOMALY":95.0276,"EPHEMERIS_TYPE":0,"CLASSIFICATION_TYPE":"U","NORAD_CAT_ID":57739,"ELEMENT_SET_NO":999,"REV_AT_EPOCH":11907,"BSTAR":-0.00034606417,"MEAN_MOTION_DOT":-4.877e-5,"MEAN_MOTION_DDOT":0},{"OBJECT_NAME":"STARLINK-30331","OBJECT_ID":"2023-131J","EPOCH":"2025-10-20T00:52:54.031872","MEAN_MOTION":15.27590858,"ECCENTRICITY":0.0001948,"INCLINATION":42.9979,"RA_OF_ASC_NODE":173.7318,"ARG_OF_PERICENTER":272.492,"MEAN_ANOMALY":87.5708,"EPHEMERIS_TYPE":0,"CLASSIFICATION_TYPE":"U","NORAD_CAT_ID":57740,"ELEMENT_SET_NO":999,"REV_AT_EPOCH":11926,"BSTAR":2.8286712e-5,"MEAN_MOTION_DOT":5.16e-6,"MEAN_MOTION_DDOT":0},{"OBJECT_NAME":"STARLINK-30364","OBJECT_ID":"2023-131K","EPOCH":"2025-10-20T03:37:48.906336","MEAN_MOTION":15.02535859,"ECCENTRICITY":0.00010123,"INCLINATION":43.0017,"RA_OF_ASC_NODE":215.4304,"ARG_OF_PERICENTER":271.457,"MEAN_ANOMALY":88.6156,"EPHEMERIS_TYPE":0,"CLASSIFICATION_TYPE":"U","NORAD_CAT_ID":57741,"ELEMENT_SET_NO":999,"REV_AT_EPOCH":11878,"BSTAR":-6.58369e-6,"MEAN_MOTION_DOT":-2.92e-6,"MEAN_MOTION_DDOT":0},{"OBJECT_NAME":"STARLINK-30308","OBJECT_ID":"2023-131L","EPOCH":"2025-10-20T02:21:15.780384","MEAN_MOTION":15.02516063,"ECCENTRICITY":0.000259,"INCLINATION":43.008,"RA_OF_ASC_NODE":215.8902,"ARG_OF_PERICENTER":274.1337,"MEAN_ANOMALY":85.9209,"EPHEMERIS_TYPE":0,"CLASSIFICATION_TYPE":"U","NORAD_CAT_ID":57742,"ELEMENT_SET_NO":999,"REV_AT_EPOCH":11878,"BSTAR":-0.00049069867,"MEAN_MOTION_DOT":-6.823e-5,"MEAN_MOTION_DDOT":0},{"OBJECT_NAME":"STARLINK-30361","OBJECT_ID":"2023-131M","EPOCH":"2025-10-20T03:33:00.754560","MEAN_MOTION":15.02537666,"ECCENTRICITY":0.0001152,"INCLINATION":43.0022,"RA_OF_ASC_NODE":215.4014,"ARG_OF_PERICENTER":265.0943,"MEAN_ANOMALY":94.9768,"EPHEMERIS_TYPE":0,"CLASSIFICATION_TYPE":"U","NORAD_CAT_ID":57743,"ELEMENT_SET_NO":999,"REV_AT_EPOCH":11878,"BSTAR":5.1072129e-5,"MEAN_MOTION_DOT":4.86e-6,"MEAN_MOTION_DDOT":0},{"OBJECT_NAME":"STARLINK-30363","OBJECT_ID":"2023-131N","EPOCH":"2025-10-20T02:29:40.187040","MEAN_MOTION":15.02535412,"ECCENTRICITY":0.00026229,"INCLINATION":43.0045,"RA_OF_ASC_NODE":203.1559,"ARG_OF_PERICENTER":249.1268,"MEAN_ANOMALY":110.9293,"EPHEMERIS_TYPE":0,"CLASSIFICATION_TYPE":"U","NORAD_CAT_ID":57744,"ELEMENT_SET_NO":999,"REV_AT_EPOCH":11892,"BSTAR":1.929985e-6,"MEAN_MOTION_DOT":-1.78e-6,"MEAN_MOTION_DDOT":0},{"OBJECT_NAME":"STARLINK-30362","OBJECT_ID":"2023-131P","EPOCH":"2025-10-20T03:28:13.008000","MEAN_MOTION":15.02540405,"ECCENTRICITY":0.00012451,"INCLINATION":43.0025,"RA_OF_ASC_NODE":215.3766,"ARG_OF_PERICENTER":267.9058,"MEAN_ANOMALY":92.1642,"EPHEMERIS_TYPE":0,"CLASSIFICATION_TYPE":"U","NORAD_CAT_ID":57745,"ELEMENT_SET_NO":999,"REV_AT_EPOCH":11878,"BSTAR":4.4451312e-5,"MEAN_MOTION_DOT":3.97e-6,"MEAN_MOTION_DDOT":0},{"OBJECT_NAME":"STARLINK-30350","OBJECT_ID":"2023-131Q","EPOCH":"2025-10-19T20:12:43.941600","MEAN_MOTION":15.02536204,"ECCENTRICITY":0.00010167,"INCLINATION":43.0012,"RA_OF_ASC_NODE":217.3907,"ARG_OF_PERICENTER":274.6609,"MEAN_ANOMALY":85.4117,"EPHEMERIS_TYPE":0,"CLASSIFICATION_TYPE":"U","NORAD_CAT_ID":57746,"ELEMENT_SET_NO":999,"REV_AT_EPOCH":11873,"BSTAR":3.7413717e-5,"MEAN_MOTION_DOT":3.02e-6,"MEAN_MOTION_DDOT":0},{"OBJECT_NAME":"STARLINK-30307","OBJECT_ID":"2023-131R","EPOCH":"2025-10-20T03:29:48.492960","MEAN_MOTION":15.02547034,"ECCENTRICITY":0.00010365,"INCLINATION":43.0014,"RA_OF_ASC_NODE":215.3862,"ARG_OF_PERICENTER":278.9934,"MEAN_ANOMALY":81.0791,"EPHEMERIS_TYPE":0,"CLASSIFICATION_TYPE":"U","NORAD_CAT_ID":57747,"ELEMENT_SET_NO":999,"REV_AT_EPOCH":11878,"BSTAR":0.00011847907,"MEAN_MOTION_DOT":1.398e-5,"MEAN_MOTION_DDOT":0},{"OBJECT_NAME":"STARLINK-30356","OBJECT_ID":"2023-131S","EPOCH":"2025-10-20T03:18:38.102400","MEAN_MOTION":15.02552644,"ECCENTRICITY":0.00012346,"INCLINATION":43.0041,"RA_OF_ASC_NODE":215.3283,"ARG_OF_PERICENTER":276.9078,"MEAN_ANOMALY":83.1624,"EPHEMERIS_TYPE":0,"CLASSIFICATION_TYPE":"U","NORAD_CAT_ID":57748,"ELEMENT_SET_NO":999,"REV_AT_EPOCH":11878,"BSTAR":-3.24817e-7,"MEAN_MOTION_DOT":-2.08e-6,"MEAN_MOTION_DDOT":0},{"OBJECT_NAME":"STARLINK-30366","OBJECT_ID":"2023-131T","EPOCH":"2025-10-20T04:25:36.147360","MEAN_MOTION":15.0251857,"ECCENTRICITY":0.00019269,"INCLINATION":43.005,"RA_OF_ASC_NODE":214.8145,"ARG_OF_PERICENTER":267.7145,"MEAN_ANOMALY":92.3477,"EPHEMERIS_TYPE":0,"CLASSIFICATION_TYPE":"U","NORAD_CAT_ID":57749,"ELEMENT_SET_NO":999,"REV_AT_EPOCH":11879,"BSTAR":-0.0001786063,"MEAN_MOTION_DOT":-2.614e-5,"MEAN_MOTION_DDOT":0},{"OBJECT_NAME":"STARLINK-30357","OBJECT_ID":"2023-131U","EPOCH":"2025-10-20T03:04:15.025152","MEAN_MOTION":15.02534225,"ECCENTRICITY":9.72e-5,"INCLINATION":43.0006,"RA_OF_ASC_NODE":215.2498,"ARG_OF_PERICENTER":273.4362,"MEAN_ANOMALY":86.6369,"EPHEMERIS_TYPE":0,"CLASSIFICATION_TYPE":"U","NORAD_CAT_ID":57750,"ELEMENT_SET_NO":999,"REV_AT_EPOCH":11878,"BSTAR":4.1491721e-5,"MEAN_MOTION_DOT":3.57e-6,"MEAN_MOTION_DDOT":0},{"OBJECT_NAME":"STARLINK-30370","OBJECT_ID":"2023-131V","EPOCH":"2025-10-20T02:24:51.959232","MEAN_MOTION":15.02533283,"ECCENTRICITY":0.00013361,"INCLINATION":43.0026,"RA_OF_ASC_NODE":203.1675,"ARG_OF_PERICENTER":270.9991,"MEAN_ANOMALY":89.0698,"EPHEMERIS_TYPE":0,"CLASSIFICATION_TYPE":"U","NORAD_CAT_ID":57751,"ELEMENT_SET_NO":999,"REV_AT_EPOCH":11892,"BSTAR":0.00019175432,"MEAN_MOTION_DOT":2.387e-5,"MEAN_MOTION_DDOT":0}]
